LEMUR-2-JOBANPUTRA      
1 41997U 17008BB  17345.94636166  .00001886  00000-0  82231-4 0  9990
2 41997  97.4758  46.7593 0007510 315.4051  44.6581 15.23409708 44902
